ONEWEB-0620             
1 55161U 23004X   25152.56993292 -.00000383  00000+0 -11164-2 0  9997
2 55161  87.8834  96.9605 0002488  81.1855 278.9554 13.11419100115944
ONEWEB-0621             
1 55162U 23004Y   25152.59707346  .00000526  00000+0  14480-2 0  9995
2 55162  87.8830  96.9129 0001979  73.8174 286.3171 13.11418162115921
ONEWEB-0622             
1 55163U 23004Z   25152.60214582  .00000573  00000+0  15811-2 0  9994
2 55163  87.8832  96.9347 0002692  68.9224 291.2191 13.11418009115916
ONEWEB-0623             
1 55164U 23004AA  25152.50201318  .00000097  00000+0  21635-3 0  9990
2 55164  87.9068  81.6899 0002378  61.3922 298.7449 13.17648996117450
ONEWEB-0624             
1 55165U 23004AB  25152.45440109  .00000224  00000+0  58351-3 0  9995
2 55165  87.8897  66.3928 0001955  76.1354 283.9992 13.12938380118113
ONEWEB-0625             
1 55166U 23004AC  25152.49189283  .00000087  00000+0  18967-3 0  9999
2 55166  87.9067  81.6899 0001845  81.9016 278.2325 13.17650358117441
ONEWEB-0626             
1 55167U 23004AD  25152.55769996  .00000082  00000+0  17779-3 0  9997
2 55167  87.9068  81.6747 0002386  91.3002 268.8403 13.17648393117455
ONEWEB-0627             
1 55168U 23004AE  25152.54589094  .00000074  00000+0  15799-3 0  9997
2 55168  87.9067  81.6799 0002405  68.3923 291.7465 13.17649873117457
